NORAD_CAT_ID,OBJECT_NAME,OBJECT_TYPE,EPOCH,MEAN_MOTION,ECCENTRICITY,INCLINATION,RA_OF_ASC_NODE,ARG_OF_PERICENTER,MEAN_ANOMALY,BSTAR,MEAN_MOTION_DOT,MEAN_MOTION_DDOT,TLE_LINE0,TLE_LINE1,TLE_LINE2,SEMIMAJOR_AXIS,PERIOD,APOGEE,PERIGEE,DECAYED
53905.0,STARLINK-5003,PAYLOAD,2022-12-17 22:00:00,15.20970492,0.0001252,53.2172,201.7738,68.7539,340.8571,-0.055304,-0.01144628,0.0,0 STARLINK-5003,1 53905U 22119V   22351.91667824 -.01144628  00000-0 -55304-1 0  9999,2 53905  53.2172 201.7738 0001252  68.7539 340.8571 15.20970492  1301,6881.049,94.676,503.775,502.052,0.0
53905.0,STARLINK-5003,PAYLOAD,2022-12-18 06:00:02,15.20160392,0.0001279,53.2174,200.2489,68.3369,7.015,-0.056919,-0.01149903,0.0,0 STARLINK-5003,1 53905U 22119V   22352.25002315 -.01149903  00000-0 -56919-1 0  9999,2 53905  53.2174 200.2489 0001279  68.3369   7.0150 15.20160392 13641,6883.493,94.727,506.239,504.478,0.0
53905.0,STARLINK-5003,PAYLOAD,2022-12-18 14:00:01,15.19345419,0.0001344,53.2176,198.7262,73.178,26.8115,-0.058137,-0.01147082,0.0,0 STARLINK-5003,1 53905U 22119V   22352.58334491 -.01147082  00000-0 -58137-1 0  9998,2 53905  53.2176 198.7262 0001344  73.1780  26.8115 15.19345419  1300,6885.955,94.778,508.745,506.894,0.0
53905.0,STARLINK-5003,PAYLOAD,2022-12-18 22:00:00,15.18533477,0.0001564,53.2176,197.2084,56.968,66.7424,-0.059732,-0.01150753,0.0,0 STARLINK-5003,1 53905U 22119V   22352.91667824 -.01150753  00000-0 -59732-1 0  9995,2 53905  53.2176 197.2084 0001564  56.9680  66.7424 15.18533477  1306,6888.409000000002,94.828,511.351,509.197,0.0
53905.0,STARLINK-5003,PAYLOAD,2022-12-19 04:00:00,15.17922752,0.0001460999999999,53.2173,196.0691,48.9544,1.9067,-0.060745,-0.01149782,0.0,0 STARLINK-5003,1 53905U 22119V   22353.16667824 -.01149782  00000-0 -60745-1 0  9999,2 53905  53.2173 196.0691 0001461  48.9544   1.9067 15.17922752 13786,6890.257,94.866,513.128,511.115,0.0
53905.0,STARLINK-5003,PAYLOAD,2022-12-19 10:00:00,15.17308854,0.0001313,53.2174,194.9303,57.1681,280.295,-0.061484,-0.0114377,0.0,0 STARLINK-5003,1 53905U 22119V   22353.41667824 -.01143770  00000-0 -61484-1 0  9999,2 53905  53.2174 194.9303 0001313  57.1681 280.2950 15.17308854  1303,6892.115,94.905,514.885,513.075,0.0
53905.0,STARLINK-5003,PAYLOAD,2022-12-19 22:00:00,15.16090317,0.0001657,53.2176,192.6603,56.2559,132.7553,-0.063874,-0.0114711,0.0,0 STARLINK-5003,1 53905U 22119V   22353.91667824 -.01147110  00000-0 -63874-1 0  9991,2 53905  53.2176 192.6603 0001657  56.2559 132.7553 15.16090317 13896,6895.807,94.981,518.815,516.53,0.0
53905.0,STARLINK-5003,PAYLOAD,2022-12-20 14:00:01,15.14472048,0.000162,53.2166,189.6362,55.7085,171.9431,-0.067658,-0.01159216,0.0,0 STARLINK-5003,1 53905U 22119V   22354.58334491 -.01159216  00000-0 -67658-1 0  9990,2 53905  53.2166 189.6362 0001620  55.7085 171.9431 15.14472048  1307,6900.719,95.083,523.702,521.466,0.0
53905.0,STARLINK-5003,PAYLOAD,2022-12-20 22:00:01,15.13622529,0.0001477,53.2117,188.1311,72.7495,172.866,-0.065719,-0.01103654,0.0,0 STARLINK-5003,1 53905U 22119V   22354.91668981 -.01103654  00000-0 -65719-1 0  9992,2 53905  53.2117 188.1311 0001477  72.7495 172.8660 15.13622529 14044,6903.301,95.136,526.185,524.146,0.0
53905.0,STARLINK-5003,PAYLOAD,2022-12-21 06:00:00,15.12836928,0.0001556,53.2175,186.6213,53.2718,209.1167,-0.070222,-0.01149583,0.0,0 STARLINK-5003,1 53905U 22119V   22355.25001157 -.01149583  00000-0 -70222-1 0  9992,2 53905  53.2175 186.6213 0001556  53.2718 209.1167 15.12836928 14092,6905.69,95.185,528.63,526.481,0.0
53905.0,STARLINK-5003,PAYLOAD,2022-12-21 14:00:01,15.12021518,0.0001538,53.2175,185.1162,55.234,223.0547,-0.0716059999999999,-0.01145998,0.0,0 STARLINK-5003,1 53905U 22119V   22355.58334491 -.01145998  00000-0 -71606-1 0  9991,2 53905  53.2175 185.1162 0001538  55.2340 223.0547 15.12021518  1300,6908.1730000000025,95.237,531.1,528.975,0.0
53905.0,STARLINK-5003,PAYLOAD,2022-12-22 06:00:00,15.10391017,0.0001186,53.2118,182.114,80.8829,226.3109,-0.075178,-0.01149315,0.0,0 STARLINK-5003,1 53905U 22119V   22356.25001157 -.01149315  00000-0 -75178-1 0  9991,2 53905  53.2118 182.1140 0001186  80.8829 226.3109 15.10391017 14255,6913.144,95.34,535.8290000000002,534.189,0.0
53905.0,STARLINK-5003,PAYLOAD,2022-12-22 14:00:01,15.09464532,0.0001281999999999,53.2135,180.6138,85.3803,234.795,-0.0534799999999999,-0.00808564,0.0,0 STARLINK-5003,1 53905U 22119V   22356.58334491 -.00808564  00000-0 -53480-1 0  9996,2 53905  53.2135 180.6138 0001282  85.3803 234.7950 15.09464532  1303,6915.972,95.398,538.724,536.95,0.0
53905.0,STARLINK-5003,PAYLOAD,2022-12-22 22:00:00,15.08864593,0.0001339,53.2155,179.1186,82.0112,250.1425,-0.00069373,-0.00011319,0.0,0 STARLINK-5003,1 53905U 22119V   22356.91667824 -.00011319  00000-0 -69373-3 0  9996,2 53905  53.2155 179.1186 0001339  82.0112 250.1425 15.08864593 14359,6917.805,95.436,540.597,538.744,0.0
53905.0,STARLINK-5003,PAYLOAD,2022-12-23 00:00:00,15.08891147,0.0001317,53.2157,178.7442,80.1286,344.9215,-0.0043877,-0.00069541,0.0,0 STARLINK-5003,1 53905U 22119V   22357.00001157 -.00069541  00000-0 -43877-2 0  9998,2 53905  53.2157 178.7442 0001317  80.1286 344.9215 15.08891147  1303,6917.724,95.434,540.5,538.678,0.0
53905.0,STARLINK-5003,PAYLOAD,2022-12-23 14:00:01,15.08839521,0.0001318,53.2142,176.1242,67.8927,287.4936,-0.0022432,-0.00035811,0.0,0 STARLINK-5003,1 53905U 22119V   22357.58334491 -.00035811  00000-0 -22432-2 0  9998,2 53905  53.2142 176.1242 0001318  67.8927 287.4936 15.08839521  1301,6917.882,95.438,540.659,538.835,0.0
53905.0,STARLINK-5003,PAYLOAD,2022-12-23 22:00:01,15.08797574,0.000146,53.2143,174.6293,59.176,307.8606,0.0024886,0.00039494,0.0,0 STARLINK-5003,1 53905U 22119V   22357.91668981  .00039494  00000-0  24886-2 0  9993,2 53905  53.2143 174.6293 0001460  59.1760 307.8606 15.08797574 14506,6918.01,95.44,540.885,538.865,0.0
53905.0,STARLINK-5003,PAYLOAD,2022-12-24 14:00:01,15.08840683,0.0001343,53.2147,171.6351,67.6884,322.4174,-0.001258,-0.00020253,0.0,0 STARLINK-5003,1 53905U 22119V   22358.58334491 -.00020253  00000-0 -12580-2 0  9996,2 53905  53.2147 171.6351 0001343  67.6884 322.4174 15.08840683 14607,6917.878000000002,95.438,540.672,538.814,0.0
53905.0,STARLINK-5003,PAYLOAD,2022-12-24 22:00:00,15.08807612,0.0001433,53.2147,170.1402,58.8945,342.8056,0.0026729,0.0004247,0.0,0 STARLINK-5003,1 53905U 22119V   22358.91667824  .00042470  00000-0  26729-2 0  9995,2 53905  53.2147 170.1402 0001433  58.8945 342.8056 15.08807612  1301,6917.979,95.44,540.836,538.8530000000002,0.0
53905.0,STARLINK-5003,PAYLOAD,2022-12-25 06:00:00,15.08826599,0.0001293,53.2148,168.6421,66.2113,347.0709,0.00063461,9.823e-05,0.0,0 STARLINK-5003,1 53905U 22119V   22359.25001157  .00009823  00000-0  63461-3 0  9994,2 53905  53.2148 168.6421 0001293  66.2113 347.0709 15.08826599 14704,6917.920999999999,95.438,540.681,538.8919999999998,0.0
53905.0,STARLINK-5003,PAYLOAD,2022-12-25 14:00:01,15.08852878,0.0001323,53.215,167.1462,67.7444,357.1133,-0.0016265,-0.00026089,0.0,0 STARLINK-5003,1 53905U 22119V   22359.58334491 -.00026089  00000-0 -16265-2 0  9994,2 53905  53.2150 167.1462 0001323  67.7444 357.1133 15.08852878  1307,6917.840999999999,95.437,540.621,538.7909999999998,0.0
53905.0,STARLINK-5003,PAYLOAD,2022-12-26 00:00:00,15.08836784,0.0001395999999999,53.2146,165.2766,58.3929,110.9617,0.00071574,0.0001112,0.0,0 STARLINK-5003,1 53905U 22119V   22360.00001157  .00011120  00000-0  71574-3 0  9996,2 53905  53.2146 165.2766 0001396  58.3929 110.9617 15.08836784  1302,6917.89,95.438,540.721,538.789,0.0
53905.0,STARLINK-5003,PAYLOAD,2022-12-26 04:01:19,15.08829362,0.0001368,53.2162,164.5237,64.1258,295.9875,9.3995e-05,1.208e-05,0.0,0 STARLINK-5003,1 53905U 22119V   22360.16759046  .00001208  00000-0  93995-4 0  9998,2 53905  53.2162 164.5237 0001368  64.1258 295.9875 15.08829362 14841,6917.913000000001,95.438,540.724,538.832,0.0
53905.0,STARLINK-5003,PAYLOAD,2022-12-26 19:55:10,15.08838677,0.0001367,53.216,161.55,64.3047,295.8086,0.00011147,1.487e-05,0.0,0 STARLINK-5003,1 53905U 22119V   22360.82998661  .00001487  00000-0  11147-3 0  9996,2 53905  53.2160 161.5500 0001367  64.3047 295.8086 15.08838677 15366,6917.884,95.438,540.695,538.804,0.0
53905.0,STARLINK-5003,PAYLOAD,2022-12-26 21:30:33,15.08840065,0.0001365,53.216,161.2525,63.9009,296.2123,0.00012008,1.624e-05,0.0,0 STARLINK-5003,1 53905U 22119V   22360.89622550  .00001624  00000-0  12008-3 0  9994,2 53905  53.2160 161.2525 0001365  63.9009 296.2123 15.08840065 14956,6917.88,95.438,540.689,538.8009999999998,0.0
53905.0,STARLINK-5003,PAYLOAD,2022-12-27 03:52:06,15.08844156,0.0001367,53.2161,160.063,63.5687,296.5446,0.00012879,1.763e-05,0.0,0 STARLINK-5003,1 53905U 22119V   22361.16118216  .00001763  00000-0  12879-3 0  9994,2 53905  53.2161 160.0630 0001367  63.5687 296.5446 15.08844156 15419,6917.868,95.437,540.678,538.7869999999998,0.0
53905.0,STARLINK-5003,PAYLOAD,2022-12-27 19:45:56,15.0885272,0.0001413,53.2164,157.0885,64.1791,295.9347,0.00011403,1.528e-05,0.0,0 STARLINK-5003,1 53905U 22119V   22361.82357327  .00001528  00000-0  11403-3 0  9996,2 53905  53.2164 157.0885 0001413  64.1791 295.9347 15.08852720 15098,6917.842,95.437,540.684,538.729,0.0
53905.0,STARLINK-5003,PAYLOAD,2022-12-28 10:04:25,15.08842709,0.0001391,53.216,154.4129,64.6501,295.4635,1.3291e-05,-7.6e-07,0.0,0 STARLINK-5003,1 53905U 22119V   22362.41973965 -.00000076  00000-0  13291-4 0  9990,2 53905  53.2160 154.4129 0001391  64.6501 295.4635 15.08842709 15186,6917.871999999999,95.437,540.6990000000002,538.775,0.0
53905.0,STARLINK-5003,PAYLOAD,2022-12-28 13:15:11,15.08841529,0.0001405,53.2161,153.81799999999996,63.8324,296.2812,-1.3794e-05,-5.07e-06,0.0,0 STARLINK-5003,1 53905U 22119V   22362.55222099 -.00000507  00000-0 -13794-4 0  9998,2 53905  53.2161 153.8180 0001405  63.8324 296.2812 15.08841529 15621,6917.876,95.437,540.7130000000002,538.769,0.0
